ONEWEB-0229             
1 48779U 21045N   24181.84113875  .00000114  00000+0  26912-3 0  9998
2 48779  87.9026  41.9543 0002019  82.8409 277.2951 13.15547400150096
ONEWEB-0228             
1 48780U 21045P   24181.86021470 -.00000069  00000+0 -21781-3 0  9991
2 48780  87.9025  41.9271 0001947  81.1921 278.9429 13.15069435150012
ONEWEB-0232             
1 48781U 21045Q   24181.84905870  .00000094  00000+0  21513-3 0  9994
2 48781  87.9020  41.9486 0001970  81.2130 278.9223 13.15546769150332
ONEWEB-0231             
1 48782U 21045R   24181.90292445  .00000145  00000+0  34994-3 0  9993
2 48782  87.9034  41.9693 0002078  77.9608 282.1755 13.15550736150033
ONEWEB-0234             
1 48783U 21045S   24181.84667323  .00000158  00000+0  38578-3 0  9994
2 48783  87.9027  41.9388 0000507  82.3156 277.8032 13.15550999150164
ONEWEB-0246             
1 48786U 21045V   24181.65257838 -.00000155  00000+0 -44679-3 0  9990
2 48786  87.9026  41.9670 0002018  83.8632 276.2728 13.15549683149930
